[{"OBJECT_NAME":"ONEWEB-0680","OBJECT_ID":"2023-068G","EPOCH":"2026-02-14T03:58:39.356256","MEAN_MOTION":13.21827053,"ECCENTRICITY":0.00021647,"INCLINATION":87.9188,"RA_OF_ASC_NODE":268.5017,"ARG_OF_PERICENTER":82.8315,"MEAN_ANOMALY":277.3065,"EPHEMERIS_TYPE":0,"CLASSIFICATION_TYPE":"U","NORAD_CAT_ID":56716,"ELEMENT_SET_NO":999,"REV_AT_EPOCH":13484,"BSTAR":4.4577908e-5,"MEAN_MOTION_DOT":3.1e-7,"MEAN_MOTION_DDOT":0},{"OBJECT_NAME":"ONEWEB-0681","OBJECT_ID":"2023-068H","EPOCH":"2026-02-14T03:28:59.596608","MEAN_MOTION":13.21827542,"ECCENTRICITY":0.00013335,"INCLINATION":87.9182,"RA_OF_ASC_NODE":268.5164,"ARG_OF_PERICENTER":49.116,"MEAN_ANOMALY":311.0089,"EPHEMERIS_TYPE":0,"CLASSIFICATION_TYPE":"U","NORAD_CAT_ID":56717,"ELEMENT_SET_NO":999,"REV_AT_EPOCH":13483,"BSTAR":-4.367915e-5,"MEAN_MOTION_DOT":-5.0e-8,"MEAN_MOTION_DDOT":0},{"OBJECT_NAME":"ONEWEB-0682","OBJECT_ID":"2023-068J","EPOCH":"2026-02-14T03:00:31.885920","MEAN_MOTION":13.15548898,"ECCENTRICITY":0.00020269,"INCLINATION":87.8969,"RA_OF_ASC_NODE":283.7663,"ARG_OF_PERICENTER":80.6244,"MEAN_ANOMALY":279.5115,"EPHEMERIS_TYPE":0,"CLASSIFICATION_TYPE":"U","NORAD_CAT_ID":56718,"ELEMENT_SET_NO":999,"REV_AT_EPOCH":13327,"BSTAR":0.00021432382,"MEAN_MOTION_DOT":9.4e-7,"MEAN_MOTION_DDOT":0},{"OBJECT_NAME":"ONEWEB-0683","OBJECT_ID":"2023-068K","EPOCH":"2026-02-14T05:20:51.689472","MEAN_MOTION":13.15549946,"ECCENTRICITY":0.00018347,"INCLINATION":87.8982,"RA_OF_ASC_NODE":283.7374,"ARG_OF_PERICENTER":82.4637,"MEAN_ANOMALY":277.6702,"EPHEMERIS_TYPE":0,"CLASSIFICATION_TYPE":"U","NORAD_CAT_ID":56719,"ELEMENT_SET_NO":999,"REV_AT_EPOCH":13325,"BSTAR":-0.00022233521,"MEAN_MOTION_DOT":-7.1e-7,"MEAN_MOTION_DDOT":0},{"OBJECT_NAME":"ONEWEB-0684","OBJECT_ID":"2023-068L","EPOCH":"2026-02-14T03:42:44.682912","MEAN_MOTION":13.15549454,"ECCENTRICITY":0.00014712,"INCLINATION":87.8979,"RA_OF_ASC_NODE":283.7438,"ARG_OF_PERICENTER":138.5791,"MEAN_ANOMALY":221.5451,"EPHEMERIS_TYPE":0,"CLASSIFICATION_TYPE":"U","NORAD_CAT_ID":56720,"ELEMENT_SET_NO":999,"REV_AT_EPOCH":13307,"BSTAR":-3.1541284e-5,"MEAN_MOTION_DOT":1.0e-8,"MEAN_MOTION_DDOT":0},{"OBJECT_NAME":"ONEWEB-0686","OBJECT_ID":"2023-068M","EPOCH":"2026-02-14T02:08:10.950432","MEAN_MOTION":13.16586627,"ECCENTRICITY":0.00016951,"INCLINATION":87.8992,"RA_OF_ASC_NODE":253.3041,"ARG_OF_PERICENTER":102.697,"MEAN_ANOMALY":257.4351,"EPHEMERIS_TYPE":0,"CLASSIFICATION_TYPE":"U","NORAD_CAT_ID":56721,"ELEMENT_SET_NO":999,"REV_AT_EPOCH":13551,"BSTAR":0.0038217883,"MEAN_MOTION_DOT":1.474e-5,"MEAN_MOTION_DDOT":0},{"OBJECT_NAME":"ONEWEB-0694","OBJECT_ID":"2023-068N","EPOCH":"2026-02-14T02:17:17.289600","MEAN_MOTION":13.16596545,"ECCENTRICITY":0.00020092,"INCLINATION":87.9008,"RA_OF_ASC_NODE":253.2435,"ARG_OF_PERICENTER":88.9052,"MEAN_ANOMALY":271.2309,"EPHEMERIS_TYPE":0,"CLASSIFICATION_TYPE":"U","NORAD_CAT_ID":56722,"ELEMENT_SET_NO":999,"REV_AT_EPOCH":13557,"BSTAR":0.00039011497,"MEAN_MOTION_DOT":1.62e-6,"MEAN_MOTION_DDOT":0},{"OBJECT_NAME":"ONEWEB-0696","OBJECT_ID":"2023-068P","EPOCH":"2026-02-14T04:30:39.503808","MEAN_MOTION":13.15547041,"ECCENTRICITY":0.0001197,"INCLINATION":87.8971,"RA_OF_ASC_NODE":283.7851,"ARG_OF_PERICENTER":100.3603,"MEAN_ANOMALY":259.7662,"EPHEMERIS_TYPE":0,"CLASSIFICATION_TYPE":"U","NORAD_CAT_ID":56723,"ELEMENT_SET_NO":999,"REV_AT_EPOCH":13319,"BSTAR":0.0004921671,"MEAN_MOTION_DOT":1.98e-6,"MEAN_MOTION_DDOT":0},{"OBJECT_NAME":"ONEWEB-0703","OBJECT_ID":"2023-068Q","EPOCH":"2026-02-14T02:54:49.937184","MEAN_MOTION":13.1554969,"ECCENTRICITY":5.386e-5,"INCLINATION":87.8969,"RA_OF_ASC_NODE":283.7794,"ARG_OF_PERICENTER":77.351,"MEAN_ANOMALY":282.768,"EPHEMERIS_TYPE":0,"CLASSIFICATION_TYPE":"U","NORAD_CAT_ID":56724,"ELEMENT_SET_NO":999,"REV_AT_EPOCH":13307,"BSTAR":0.00047962794,"MEAN_MOTION_DOT":1.93e-6,"MEAN_MOTION_DDOT":0},{"OBJECT_NAME":"ONEWEB-0721","OBJECT_ID":"2023-068R","EPOCH":"2026-02-14T06:27:21.724416","MEAN_MOTION":13.22459536,"ECCENTRICITY":0.00018369,"INCLINATION":86.6801,"RA_OF_ASC_NODE":124.7568,"ARG_OF_PERICENTER":105.0998,"MEAN_ANOMALY":255.0338,"EPHEMERIS_TYPE":0,"CLASSIFICATION_TYPE":"U","NORAD_CAT_ID":56725,"ELEMENT_SET_NO":999,"REV_AT_EPOCH":14169,"BSTAR":0.00016500257,"MEAN_MOTION_DOT":8.3e-7,"MEAN_MOTION_DDOT":0},{"OBJECT_NAME":"ONEWEB-0015","OBJECT_ID":"2024-188A","EPOCH":"2026-02-14T00:19:59.290752","MEAN_MOTION":13.11414564,"ECCENTRICITY":0.00020411,"INCLINATION":87.8819,"RA_OF_ASC_NODE":45.5992,"ARG_OF_PERICENTER":70.5591,"MEAN_ANOMALY":289.5757,"EPHEMERIS_TYPE":0,"CLASSIFICATION_TYPE":"U","NORAD_CAT_ID":61594,"ELEMENT_SET_NO":999,"REV_AT_EPOCH":6831,"BSTAR":-0.00072242273,"MEAN_MOTION_DOT":-2.43e-6,"MEAN_MOTION_DDOT":0},{"OBJECT_NAME":"ONEWEB-0687","OBJECT_ID":"2024-188B","EPOCH":"2026-02-13T23:40:23.095488","MEAN_MOTION":13.1764856,"ECCENTRICITY":0.00024046,"INCLINATION":87.91,"RA_OF_ASC_NODE":30.3603,"ARG_OF_PERICENTER":79.4374,"MEAN_ANOMALY":280.7029,"EPHEMERIS_TYPE":0,"CLASSIFICATION_TYPE":"U","NORAD_CAT_ID":61595,"ELEMENT_SET_NO":999,"REV_AT_EPOCH":6967,"BSTAR":-0.00015124329,"MEAN_MOTION_DOT":-4.6e-7,"MEAN_MOTION_DDOT":0},{"OBJECT_NAME":"ONEWEB-0688","OBJECT_ID":"2024-188C","EPOCH":"2026-02-13T22:32:21.027264","MEAN_MOTION":13.17649014,"ECCENTRICITY":0.00024101,"INCLINATION":87.91,"RA_OF_ASC_NODE":30.368,"ARG_OF_PERICENTER":53.6476,"MEAN_ANOMALY":306.4878,"EPHEMERIS_TYPE":0,"CLASSIFICATION_TYPE":"U","NORAD_CAT_ID":61596,"ELEMENT_SET_NO":999,"REV_AT_EPOCH":6966,"BSTAR":0.00026915878,"MEAN_MOTION_DOT":1.17e-6,"MEAN_MOTION_DDOT":0},{"OBJECT_NAME":"ONEWEB-0689","OBJECT_ID":"2024-188D","EPOCH":"2026-02-13T23:18:57.419424","MEAN_MOTION":13.11419441,"ECCENTRICITY":0.00021585,"INCLINATION":87.8847,"RA_OF_ASC_NODE":45.5431,"ARG_OF_PERICENTER":90.325,"MEAN_ANOMALY":269.8125,"EPHEMERIS_TYPE":0,"CLASSIFICATION_TYPE":"U","NORAD_CAT_ID":61597,"ELEMENT_SET_NO":999,"REV_AT_EPOCH":6830,"BSTAR":0.0006672446,"MEAN_MOTION_DOT":2.49e-6,"MEAN_MOTION_DDOT":0},{"OBJECT_NAME":"ONEWEB-0690","OBJECT_ID":"2024-188E","EPOCH":"2026-02-14T01:23:28.778208","MEAN_MOTION":13.11418192,"ECCENTRICITY":0.00011478,"INCLINATION":87.8837,"RA_OF_ASC_NODE":45.5476,"ARG_OF_PERICENTER":92.9929,"MEAN_ANOMALY":267.133,"EPHEMERIS_TYPE":0,"CLASSIFICATION_TYPE":"U","NORAD_CAT_ID":61598,"ELEMENT_SET_NO":999,"REV_AT_EPOCH":6849,"BSTAR":0.0012505872,"MEAN_MOTION_DOT":4.56e-6,"MEAN_MOTION_DDOT":0},{"OBJECT_NAME":"ONEWEB-0691","OBJECT_ID":"2024-188F","EPOCH":"2026-02-13T23:26:17.298240","MEAN_MOTION":13.11420052,"ECCENTRICITY":0.00020856,"INCLINATION":87.8846,"RA_OF_ASC_NODE":45.4617,"ARG_OF_PERICENTER":79.2397,"MEAN_ANOMALY":280.8965,"EPHEMERIS_TYPE":0,"CLASSIFICATION_TYPE":"U","NORAD_CAT_ID":61599,"ELEMENT_SET_NO":999,"REV_AT_EPOCH":6833,"BSTAR":0.00037263969,"MEAN_MOTION_DOT":1.45e-6,"MEAN_MOTION_DDOT":0},{"OBJECT_NAME":"ONEWEB-0692","OBJECT_ID":"2024-188G","EPOCH":"2026-02-14T01:45:27.104832","MEAN_MOTION":13.1141546,"ECCENTRICITY":0.00023674,"INCLINATION":87.8821,"RA_OF_ASC_NODE":45.5809,"ARG_OF_PERICENTER":110.7417,"MEAN_ANOMALY":249.3964,"EPHEMERIS_TYPE":0,"CLASSIFICATION_TYPE":"U","NORAD_CAT_ID":61600,"ELEMENT_SET_NO":999,"REV_AT_EPOCH":6833,"BSTAR":0.00076672721,"MEAN_MOTION_DOT":2.84e-6,"MEAN_MOTION_DDOT":0},{"OBJECT_NAME":"ONEWEB-0693","OBJECT_ID":"2024-188H","EPOCH":"2026-02-13T22:49:22.022112","MEAN_MOTION":13.17649886,"ECCENTRICITY":0.00010708,"INCLINATION":87.9099,"RA_OF_ASC_NODE":30.3876,"ARG_OF_PERICENTER":67.5713,"MEAN_ANOMALY":292.5532,"EPHEMERIS_TYPE":0,"CLASSIFICATION_TYPE":"U","NORAD_CAT_ID":61601,"ELEMENT_SET_NO":999,"REV_AT_EPOCH":6965,"BSTAR":0.00011644703,"MEAN_MOTION_DOT":5.8e-7,"MEAN_MOTION_DDOT":0},{"OBJECT_NAME":"ONEWEB-0695","OBJECT_ID":"2024-188J","EPOCH":"2026-02-14T01:11:16.940832","MEAN_MOTION":13.1141675,"ECCENTRICITY":0.00023452,"INCLINATION":87.8826,"RA_OF_ASC_NODE":45.5759,"ARG_OF_PERICENTER":96.2812,"MEAN_ANOMALY":263.8583,"EPHEMERIS_TYPE":0,"CLASSIFICATION_TYPE":"U","NORAD_CAT_ID":61602,"ELEMENT_SET_NO":999,"REV_AT_EPOCH":6832,"BSTAR":0.00035604373,"MEAN_MOTION_DOT":1.39e-6,"MEAN_MOTION_DDOT":0},{"OBJECT_NAME":"ONEWEB-0697","OBJECT_ID":"2024-188K","EPOCH":"2026-02-14T00:07:47.288352","MEAN_MOTION":13.11414391,"ECCENTRICITY":0.00021864,"INCLINATION":87.8821,"RA_OF_ASC_NODE":45.5741,"ARG_OF_PERICENTER":107.4431,"MEAN_ANOMALY":252.6937,"EPHEMERIS_TYPE":0,"CLASSIFICATION_TYPE":"U","NORAD_CAT_ID":61603,"ELEMENT_SET_NO":999,"REV_AT_EPOCH":6830,"BSTAR":-0.00012720185,"MEAN_MOTION_DOT":-3.2e-7,"MEAN_MOTION_DDOT":0},{"OBJECT_NAME":"ONEWEB-0698","OBJECT_ID":"2024-188L","EPOCH":"2026-02-13T23:36:03.460032","MEAN_MOTION":13.1141793,"ECCENTRICITY":0.00016167,"INCLINATION":87.8826,"RA_OF_ASC_NODE":45.5937,"ARG_OF_PERICENTER":127.8703,"MEAN_ANOMALY":232.2572,"EPHEMERIS_TYPE":0,"CLASSIFICATION_TYPE":"U","NORAD_CAT_ID":61604,"ELEMENT_SET_NO":999,"REV_AT_EPOCH":6832,"BSTAR":0.0016193691,"MEAN_MOTION_DOT":5.87e-6,"MEAN_MOTION_DDOT":0},{"OBJECT_NAME":"ONEWEB-0699","OBJECT_ID":"2024-188M","EPOCH":"2026-02-14T01:13:14.301408","MEAN_MOTION":13.10369548,"ECCENTRICITY":0.00020808,"INCLINATION":87.8755,"RA_OF_ASC_NODE":60.7954,"ARG_OF_PERICENTER":108.7388,"MEAN_ANOMALY":251.3965,"EPHEMERIS_TYPE":0,"CLASSIFICATION_TYPE":"U","NORAD_CAT_ID":61605,"ELEMENT_SET_NO":999,"REV_AT_EPOCH":6718,"BSTAR":-0.00030567768,"MEAN_MOTION_DOT":-9.4e-7,"MEAN_MOTION_DDOT":0},{"OBJECT_NAME":"ONEWEB-0700","OBJECT_ID":"2024-188N","EPOCH":"2026-02-14T01:15:37.308096","MEAN_MOTION":13.1036885,"ECCENTRICITY":0.00024246,"INCLINATION":87.8767,"RA_OF_ASC_NODE":60.6864,"ARG_OF_PERICENTER":102.8226,"MEAN_ANOMALY":257.3172,"EPHEMERIS_TYPE":0,"CLASSIFICATION_TYPE":"U","NORAD_CAT_ID":61606,"ELEMENT_SET_NO":999,"REV_AT_EPOCH":6717,"BSTAR":-0.00078896495,"MEAN_MOTION_DOT":-2.63e-6,"MEAN_MOTION_DDOT":0}]
